OBJECT_NAME,OBJECT_ID,EPOCH,MEAN_MOTION,ECCENTRICITY,INCLINATION,RA_OF_ASC_NODE,ARG_OF_PERICENTER,MEAN_ANOMALY,EPHEMERIS_TYPE,CLASSIFICATION_TYPE,NORAD_CAT_ID,ELEMENT_SET_NO,REV_AT_EPOCH,BSTAR,MEAN_MOTION_DOT,MEAN_MOTION_DDOT
SL-16 R/B,1994-077B,2026-07-07T04:32:27.486528,14.15576957,.00040064,70.9832,101.0830,309.8696,50.2074,0,U,23405,999,63314,-.98467032E-4,-.241E-5,0
ARIANE 40+ R/B,1995-021B,2026-07-07T04:47:11.603040,14.39844596,.00076396,98.4403,257.9846,137.0236,244.1674,0,U,23561,999,63644,.82219834E-4,.215E-5,0
SL-16 R/B,1995-058B,2026-07-07T06:32:33.300960,14.15508853,.00146306,71.0220,289.1886,293.1672,66.7909,0,U,23705,999,58477,-.93317139E-4,-.23E-5,0
SL-16 R/B,1996-051B,2026-07-07T05:09:27.531072,14.12453336,.00171377,70.7653,282.2644,308.6346,51.3239,0,U,24298,999,53852,.9975885E-4,.135E-5,0
ORBVIEW 2 (SEASTAR),1997-037A,2026-07-06T22:53:35.301120,14.35563934,.00032845,98.8707,355.5224,77.0577,283.0974,0,U,24883,999,52558,.87562803E-4,.205E-5,0
SL-16 R/B,1998-043G,2026-07-07T06:56:12.476256,14.26071866,.00104451,98.8374,142.6222,33.3747,326.8089,0,U,25400,999,45603,.32069579E-4,.31E-6,0
SL-16 R/B,1998-045B,2026-07-07T05:23:49.545600,14.16207762,.00085639,71.0126,290.1898,217.3576,142.6953,0,U,25407,999,44402,-.22988111E-4,-.93E-6,0
ISS (ZARYA),1998-067A,2026-07-07T12:12:01.987776,15.48933372,.00066874,51.6304,199.5144,267.6545,92.3678,0,U,25544,999,57490,.11369272E-3,.5806E-4,0
CZ-4B R/B,1999-025C,2026-07-07T02:18:28.433088,14.18286752,.00371097,98.6473,229.4327,3.2169,23.0322,0,U,25732,999,40509,.34226039E-4,.28E-6,0
OKEAN-O,1999-039A,2026-07-07T03:36:42.863904,14.80491100,.00010469,97.9305,246.7183,74.8049,285.3279,0,U,25860,999,45206,.72542536E-4,.503E-5,0
SL-16 R/B,1999-039B,2026-07-07T02:04:08.949216,14.81865187,.00137623,97.9826,246.8916,226.1050,133.9027,0,U,25861,999,45454,.60935748E-4,.428E-5,0
DELTA 2 R/B,1999-041E,2026-07-06T23:51:40.304736,14.12061027,.05012025,51.7610,184.6656,340.5445,17.6943,0,U,25876,999,37988,.23260822E-3,.1209E-4,0
HELIOS 1B,1999-064A,2026-07-07T05:12:53.487072,14.88061078,.00022923,98.1596,93.9355,64.0347,296.1105,0,U,25977,999,70303,.14323454E-3,.1258E-4,0
TERRA,1999-068A,2026-07-07T12:10:26.027616,14.61119538,.00030459,97.9444,237.2467,138.1285,354.4816,0,U,25994,999,41257,.74048799E-4,.32E-5,0
SL-16 R/B,2000-006B,2026-07-07T01:25:23.830176,14.15840447,.00168341,71.0005,206.8406,351.6066,8.4772,0,U,26070,999,36545,-.79333613E-4,-.204E-5,0
TITAN 4B R/B,2000-047B,2026-07-07T14:10:52.279968,15.10309585,.00460207,67.9887,63.1370,266.2985,93.2901,0,U,26474,999,41101,.12308216E-3,.193E-4,0
ENVISAT,2002-009A,2026-07-07T08:42:14.136768,14.39069589,.00013715,98.3843,139.2321,84.5205,77.1642,0,U,27386,999,27638,.37819186E-4,.74E-6,0
IDEFIX & ARIANE 42P R/B,2002-021B,2026-07-07T06:22:33.087936,14.31091373,.00113923,98.5942,125.5315,189.8899,170.2061,0,U,27422,999,26112,.81362793E-4,.171E-5,0
AQUA,2002-022A,2026-07-07T14:19:13.653120,14.62189503,.00007297,98.4289,158.2889,97.5163,31.9579,0,U,27424,999,28625,.14161414E-3,.663E-5,0
CZ-4B R/B,2002-024C,2026-07-07T02:37:57.786240,14.14567441,.00508547,98.8689,240.7995,44.7225,343.4236,0,U,27432,999,24612,.33450015E-4,.21E-6,0
MIDORI II (ADEOS-II),2002-056A,2026-07-07T08:50:34.015200,14.29360353,.00017911,98.7889,147.8009,50.3715,309.7624,0,U,27597,999,22739,.96623244E-4,.201E-5,0
H-2A R/B,2002-056E,2026-07-07T08:05:22.346880,14.33831053,.00703997,98.3322,144.2782,164.1641,350.7347,0,U,27601,999,23125,.79172502E-4,.185E-5,0
CZ-4B R/B,2003-049C,2026-07-07T10:44:45.102336,14.55112654,.00472244,98.6904,188.1015,225.2589,134.4759,0,U,28059,999,20401,.59645521E-4,.209E-5,0
CZ-2C R/B,2004-012C,2026-07-06T17:13:58.524672,15.83414277,.00112276,97.7057,265.7145,217.1216,142.9277,0,U,28222,999,22298,.48784026E-3,.106998E-2,0
SL-16 R/B,2004-021B,2026-07-07T10:56:07.054944,14.14613874,.00065065,71.0021,341.1507,231.6529,128.4009,0,U,28353,999,13977,.16559147E-3,.271E-5,0
CZ-4B R/B,2004-035C,2026-07-07T01:41:03.353280,15.30915636,.00288594,97.3361,220.9219,263.1254,96.6704,0,U,28415,999,19816,.17716977E-3,.528E-4,0
CZ-2C R/B,2004-046B,2026-07-07T04:11:50.055360,14.27031495,.01396646,98.1927,95.7050,161.0143,199.6320,0,U,28480,999,12554,.48941119E-4,.92E-6,0
ARIANE 5 R/B,2004-049H,2026-07-07T11:20:47.388480,14.85472992,.00830333,98.2736,1.5113,323.6113,35.9473,0,U,28499,999,16357,.57764729E-4,.464E-5,0
CZ-2D R/B,2005-024B,2026-07-07T00:47:35.720448,15.71950618,.00009912,97.3477,208.4827,228.1817,131.9362,0,U,28738,999,15845,.39702075E-3,.5177E-3,0
ALOS (DAICHI),2006-002A,2026-07-07T07:20:18.359520,14.70091569,.00007958,98.1332,143.8117,76.5463,283.5831,0,U,28931,999,9105,.16180741E-3,.923E-5,0
